<?xml version="1.0" encoding="UTF-8"?>
<ndm xmlns:xsi="http://www.w3.org/2001/XMLSchema-instance" xsi:noNamespaceSchemaLocation="https://sanaregistry.org/r/ndmxml_unqualified/ndmxml-2.0.0-master-2.0.xsd">
<omm id="CCSDS_OMM_VERS" version="2.0">
<header><CREATION_DATE/><ORIGINATOR/></header><body><segment><metadata><OBJECT_NAME>ONEWEB-0207</OBJECT_NAME><OBJECT_ID>2021-031AJ</OBJECT_ID><CENTER_NAME>EARTH</CENTER_NAME><REF_FRAME>TEME</REF_FRAME><TIME_SYSTEM>UTC</TIME_SYSTEM><MEAN_ELEMENT_THEORY>SGP4</MEAN_ELEMENT_THEORY></metadata><data><meanElements><EPOCH>2025-04-25T05:10:12.810720</EPOCH><MEAN_MOTION>13.14503070</MEAN_MOTION><ECCENTRICITY>.0001974</ECCENTRICITY><INCLINATION>87.9085</INCLINATION><RA_OF_ASC_NODE>12.8221</RA_OF_ASC_NODE><ARG_OF_PERICENTER>83.5501</ARG_OF_PERICENTER><MEAN_ANOMALY>276.5853</MEAN_ANOMALY></meanElements><tleParameters><EPHEMERIS_TYPE>0</EPHEMERIS_TYPE><CLASSIFICATION_TYPE>U</CLASSIFICATION_TYPE><NORAD_CAT_ID>48242</NORAD_CAT_ID><ELEMENT_SET_NO>999</ELEMENT_SET_NO><REV_AT_EPOCH>19338</REV_AT_EPOCH><BSTAR>-.97524E-3</BSTAR><MEAN_MOTION_DOT>-.349E-5</MEAN_MOTION_DOT><MEAN_MOTION_DDOT>0</MEAN_MOTION_DDOT></tleParameters></data></segment></body></omm>
<omm id="CCSDS_OMM_VERS" version="2.0">
<header><CREATION_DATE/><ORIGINATOR/></header><body><segment><metadata><OBJECT_NAME>ONEWEB-0208</OBJECT_NAME><OBJECT_ID>2021-031AK</OBJECT_ID><CENTER_NAME>EARTH</CENTER_NAME><REF_FRAME>TEME</REF_FRAME><TIME_SYSTEM>UTC</TIME_SYSTEM><MEAN_ELEMENT_THEORY>SGP4</MEAN_ELEMENT_THEORY></metadata><data><meanElements><EPOCH>2025-04-25T10:12:47.615904</EPOCH><MEAN_MOTION>13.14501241</MEAN_MOTION><ECCENTRICITY>.0001743</ECCENTRICITY><INCLINATION>87.9093</INCLINATION><RA_OF_ASC_NODE>12.7936</RA_OF_ASC_NODE><ARG_OF_PERICENTER>82.9675</ARG_OF_PERICENTER><MEAN_ANOMALY>277.1653</MEAN_ANOMALY></meanElements><tleParameters><EPHEMERIS_TYPE>0</EPHEMERIS_TYPE><CLASSIFICATION_TYPE>U</CLASSIFICATION_TYPE><NORAD_CAT_ID>48243</NORAD_CAT_ID><ELEMENT_SET_NO>999</ELEMENT_SET_NO><REV_AT_EPOCH>19342</REV_AT_EPOCH><BSTAR>-.24235E-3</BSTAR><MEAN_MOTION_DOT>-.77E-6</MEAN_MOTION_DOT><MEAN_MOTION_DDOT>0</MEAN_MOTION_DDOT></tleParameters></data></segment></body></omm>
<omm id="CCSDS_OMM_VERS" version="2.0">
<header><CREATION_DATE/><ORIGINATOR/></header><body><segment><metadata><OBJECT_NAME>ONEWEB-0200</OBJECT_NAME><OBJECT_ID>2021-031AL</OBJECT_ID><CENTER_NAME>EARTH</CENTER_NAME><REF_FRAME>TEME</REF_FRAME><TIME_SYSTEM>UTC</TIME_SYSTEM><MEAN_ELEMENT_THEORY>SGP4</MEAN_ELEMENT_THEORY></metadata><data><meanElements><EPOCH>2025-04-25T03:51:27.592992</EPOCH><MEAN_MOTION>13.14502985</MEAN_MOTION><ECCENTRICITY>.0001763</ECCENTRICITY><INCLINATION>87.9090</INCLINATION><RA_OF_ASC_NODE>12.8391</RA_OF_ASC_NODE><ARG_OF_PERICENTER>78.5036</ARG_OF_PERICENTER><MEAN_ANOMALY>281.6291</MEAN_ANOMALY></meanElements><tleParameters><EPHEMERIS_TYPE>0</EPHEMERIS_TYPE><CLASSIFICATION_TYPE>U</CLASSIFICATION_TYPE><NORAD_CAT_ID>48244</NORAD_CAT_ID><ELEMENT_SET_NO>999</ELEMENT_SET_NO><REV_AT_EPOCH>19332</REV_AT_EPOCH><BSTAR>.70903E-3</BSTAR><MEAN_MOTION_DOT>.276E-5</MEAN_MOTION_DOT><MEAN_MOTION_DDOT>0</MEAN_MOTION_DDOT></tleParameters></data></segment></body></omm>
<omm id="CCSDS_OMM_VERS" version="2.0">
<header><CREATION_DATE/><ORIGINATOR/></header><body><segment><metadata><OBJECT_NAME>ONEWEB-0217</OBJECT_NAME><OBJECT_ID>2021-031AM</OBJECT_ID><CENTER_NAME>EARTH</CENTER_NAME><REF_FRAME>TEME</REF_FRAME><TIME_SYSTEM>UTC</TIME_SYSTEM><MEAN_ELEMENT_THEORY>SGP4</MEAN_ELEMENT_THEORY></metadata><data><meanElements><EPOCH>2025-04-25T04:14:16.607040</EPOCH><MEAN_MOTION>13.14501538</MEAN_MOTION><ECCENTRICITY>.0001548</ECCENTRICITY><INCLINATION>87.9086</INCLINATION><RA_OF_ASC_NODE>12.8209</RA_OF_ASC_NODE><ARG_OF_PERICENTER>81.9571</ARG_OF_PERICENTER><MEAN_ANOMALY>278.1734</MEAN_ANOMALY></meanElements><tleParameters><EPHEMERIS_TYPE>0</EPHEMERIS_TYPE><CLASSIFICATION_TYPE>U</CLASSIFICATION_TYPE><NORAD_CAT_ID>48245</NORAD_CAT_ID><ELEMENT_SET_NO>999</ELEMENT_SET_NO><REV_AT_EPOCH>19327</REV_AT_EPOCH><BSTAR>.36188E-3</BSTAR><MEAN_MOTION_DOT>.147E-5</MEAN_MOTION_DOT><MEAN_MOTION_DDOT>0</MEAN_MOTION_DDOT></tleParameters></data></segment></body></omm>
<omm id="CCSDS_OMM_VERS" version="2.0">
<header><CREATION_DATE/><ORIGINATOR/></header><body><segment><metadata><OBJECT_NAME>ONEWEB-0211</OBJECT_NAME><OBJECT_ID>2021-045A</OBJECT_ID><CENTER_NAME>EARTH</CENTER_NAME><REF_FRAME>TEME</REF_FRAME><TIME_SYSTEM>UTC</TIME_SYSTEM><MEAN_ELEMENT_THEORY>SGP4</MEAN_ELEMENT_THEORY></metadata><data><meanElements><EPOCH>2025-04-24T03:31:28.482816</EPOCH><MEAN_MOTION>13.16076707</MEAN_MOTION><ECCENTRICITY>.0001471</ECCENTRICITY><INCLINATION>87.9084</INCLINATION><RA_OF_ASC_NODE>342.6715</RA_OF_ASC_NODE><ARG_OF_PERICENTER>76.5142</ARG_OF_PERICENTER><MEAN_ANOMALY>283.6152</MEAN_ANOMALY></meanElements><tleParameters><EPHEMERIS_TYPE>0</EPHEMERIS_TYPE><CLASSIFICATION_TYPE>U</CLASSIFICATION_TYPE><NORAD_CAT_ID>48767</NORAD_CAT_ID><ELEMENT_SET_NO>999</ELEMENT_SET_NO><REV_AT_EPOCH>18932</REV_AT_EPOCH><BSTAR>.28739E-3</BSTAR><MEAN_MOTION_DOT>.122E-5</MEAN_MOTION_DOT><MEAN_MOTION_DDOT>0</MEAN_MOTION_DDOT></tleParameters></data></segment></body></omm>
<omm id="CCSDS_OMM_VERS" version="2.0">
<header><CREATION_DATE/><ORIGINATOR/></header><body><segment><metadata><OBJECT_NAME>ONEWEB-0223</OBJECT_NAME><OBJECT_ID>2021-045B</OBJECT_ID><CENTER_NAME>EARTH</CENTER_NAME><REF_FRAME>TEME</REF_FRAME><TIME_SYSTEM>UTC</TIME_SYSTEM><MEAN_ELEMENT_THEORY>SGP4</MEAN_ELEMENT_THEORY></metadata><data><meanElements><EPOCH>2025-04-25T13:29:56.936256</EPOCH><MEAN_MOTION>13.15546386</MEAN_MOTION><ECCENTRICITY>.0001355</ECCENTRICITY><INCLINATION>87.9085</INCLINATION><RA_OF_ASC_NODE>342.4185</RA_OF_ASC_NODE><ARG_OF_PERICENTER>70.7431</ARG_OF_PERICENTER><MEAN_ANOMALY>289.3846</MEAN_ANOMALY></meanElements><tleParameters><EPHEMERIS_TYPE>0</EPHEMERIS_TYPE><CLASSIFICATION_TYPE>U</CLASSIFICATION_TYPE><NORAD_CAT_ID>48768</NORAD_CAT_ID><ELEMENT_SET_NO>999</ELEMENT_SET_NO><REV_AT_EPOCH>19063</REV_AT_EPOCH><BSTAR>-.75284E-4</BSTAR><MEAN_MOTION_DOT>-.16E-6</MEAN_MOTION_DOT><MEAN_MOTION_DDOT>0</MEAN_MOTION_DDOT></tleParameters></data></segment></body></omm>
<omm id="CCSDS_OMM_VERS" version="2.0">
<header><CREATION_DATE/><ORIGINATOR/></header><body><segment><metadata><OBJECT_NAME>ONEWEB-0230</OBJECT_NAME><OBJECT_ID>2021-045C</OBJECT_ID><CENTER_NAME>EARTH</CENTER_NAME><REF_FRAME>TEME</REF_FRAME><TIME_SYSTEM>UTC</TIME_SYSTEM><MEAN_ELEMENT_THEORY>SGP4</MEAN_ELEMENT_THEORY></metadata><data><meanElements><EPOCH>2025-04-25T12:48:53.334432</EPOCH><MEAN_MOTION>13.15548209</MEAN_MOTION><ECCENTRICITY>.0001895</ECCENTRICITY><INCLINATION>87.9064</INCLINATION><RA_OF_ASC_NODE>342.4763</RA_OF_ASC_NODE><ARG_OF_PERICENTER>80.3540</ARG_OF_PERICENTER><MEAN_ANOMALY>279.7804</MEAN_ANOMALY></meanElements><tleParameters><EPHEMERIS_TYPE>0</EPHEMERIS_TYPE><CLASSIFICATION_TYPE>U</CLASSIFICATION_TYPE><NORAD_CAT_ID>48769</NORAD_CAT_ID><ELEMENT_SET_NO>999</ELEMENT_SET_NO><REV_AT_EPOCH>19086</REV_AT_EPOCH><BSTAR>.47814E-3</BSTAR><MEAN_MOTION_DOT>.193E-5</MEAN_MOTION_DOT><MEAN_MOTION_DDOT>0</MEAN_MOTION_DDOT></tleParameters></data></segment></body></omm>
<omm id="CCSDS_OMM_VERS" version="2.0">
<header><CREATION_DATE/><ORIGINATOR/></header><body><segment><metadata><OBJECT_NAME>ONEWEB-0237</OBJECT_NAME><OBJECT_ID>2021-045D</OBJECT_ID><CENTER_NAME>EARTH</CENTER_NAME><REF_FRAME>TEME</REF_FRAME><TIME_SYSTEM>UTC</TIME_SYSTEM><MEAN_ELEMENT_THEORY>SGP4</MEAN_ELEMENT_THEORY></metadata><data><meanElements><EPOCH>2025-04-25T12:32:55.450464</EPOCH><MEAN_MOTION>13.15548996</MEAN_MOTION><ECCENTRICITY>.000152</ECCENTRICITY><INCLINATION>87.9092</INCLINATION><RA_OF_ASC_NODE>342.4431</RA_OF_ASC_NODE><ARG_OF_PERICENTER>73.3479</ARG_OF_PERICENTER><MEAN_ANOMALY>286.7818</MEAN_ANOMALY></meanElements><tleParameters><EPHEMERIS_TYPE>0</EPHEMERIS_TYPE><CLASSIFICATION_TYPE>U</CLASSIFICATION_TYPE><NORAD_CAT_ID>48770</NORAD_CAT_ID><ELEMENT_SET_NO>999</ELEMENT_SET_NO><REV_AT_EPOCH>19060</REV_AT_EPOCH><BSTAR>.26775E-3</BSTAR><MEAN_MOTION_DOT>.114E-5</MEAN_MOTION_DOT><MEAN_MOTION_DDOT>0</MEAN_MOTION_DDOT></tleParameters></data></segment></body></omm>

</ndm>
