ONEWEB-0207             
1 48242U 21031AJ  25115.21542605 -.00000349  00000+0 -97524-3 0  9993
2 48242  87.9085  12.8221 0001974  83.5501 276.5853 13.14503070193382
ONEWEB-0208             
1 48243U 21031AK  25115.42555111 -.00000077  00000+0 -24235-3 0  9990
2 48243  87.9093  12.7936 0001743  82.9675 277.1653 13.14501241193421
ONEWEB-0200             
1 48244U 21031AL  25115.16073603  .00000276  00000+0  70903-3 0  9995
2 48244  87.9090  12.8391 0001763  78.5036 281.6291 13.14502985193322
ONEWEB-0217             
1 48245U 21031AM  25115.17658110  .00000147  00000+0  36188-3 0  9993
2 48245  87.9086  12.8209 0001548  81.9571 278.1734 13.14501538193279
ONEWEB-0211             
1 48767U 21045A   25114.14685744  .00000122  00000+0  28739-3 0  9992
2 48767  87.9084 342.6715 0001471  76.5142 283.6152 13.16076707189324
ONEWEB-0223             
1 48768U 21045B   25115.56246454 -.00000016  00000+0 -75284-4 0  9993
2 48768  87.9085 342.4185 0001355  70.7431 289.3846 13.15546386190636
ONEWEB-0230             
1 48769U 21045C   25115.53395063  .00000193  00000+0  47814-3 0  9993
2 48769  87.9064 342.4763 0001895  80.3540 279.7804 13.15548209190861
ONEWEB-0237             
1 48770U 21045D   25115.52286401  .00000114  00000+0  26775-3 0  9995
2 48770  87.9092 342.4431 0001520  73.3479 286.7818 13.15548996190602
